0 COSMOS 2251 DEB
1 38062U 93036BRU 13278.21481572  .00002756  00000-0  79109-3 0   957
2 38062 074.0282 108.6727 0035930 262.7249 097.0073 14.45010384160022
0 COSMOS 2251 DEB
1 38062U 93036BRU 13278.90712744  .00001908  00000-0  55013-3 0   968
2 38062 074.0255 107.3845 0035671 262.6343 097.0508 14.45009743160126
0 COSMOS 2251 DEB
1 38062U 93036BRU 13281.19177381  .00001453  00000-0  42095-3 0   977
2 38062 074.0268 103.1279 0035569 256.2567 103.4461 14.45014693160454
0 COSMOS 2251 DEB
1 38062U 93036BRU 13284.16872521  .00001772  00000-0  51114-3 0   982
2 38062 074.0286 097.5825 0035881 250.2777 109.5009 14.45027969160883
0 COSMOS 2251 DEB
1 38062U 93036BRU 13286.79948309  .00001997  00000-0  57472-3 0   994
2 38062 074.0327 092.6798 0036782 243.1658 116.6511 14.45041708161261
0 COSMOS 2251 DEB
1 38062U 93036BRU 13288.80714227  .00002206  00000-0  63412-3 0  1006
2 38062 074.0301 088.9394 0036056 240.5621 119.2213 14.45053310161550
0 COSMOS 2251 DEB
1 38062U 93036BRU 13290.12249363  .00002414  00000-0  69333-3 0  1018
2 38062 074.0237 086.4822 0035049 239.8009 119.9648 14.45062806161749
